SITRO-AIS-65            
1 67266U 25313U   26015.18779417  .00005035  00000+0  23489-3 0  9990
2 67266  97.4142  92.3580 0015504 175.3435 184.7947 15.20199968  2682
2025-313V               
1 67267U 25313V   26015.18736558  .00005732  00000+0  26657-3 0  9994
2 67267  97.4123  92.3459 0014693 180.9368 179.1842 15.20258716  2681
ZORKY-2M 7              
1 67268U 25313W   26015.18803816  .00004639  00000+0  21693-3 0  9997
2 67268  97.4123  92.3435 0015655 176.1510 183.9849 15.20152629  2687
2025-313X               
1 67269U 25313X   26015.12118271  .00007093  00000+0  32822-3 0  9999
2 67269  97.4150  92.2957 0015480 174.8511 185.2886 15.20334365  2672
SITRO-TD-3              
1 67270U 25313Y   26015.12231119  .00005295  00000+0  24703-3 0  9999
2 67270  97.4124  92.2892 0015593 176.6712 183.4630 15.20170244  2672
2025-313Z               
1 67271U 25313Z   26015.18887867  .00002820  00000+0  13371-3 0  9993
2 67271  97.4117  92.3433 0015635 172.3110 187.8368 15.20013629  2689
2025-313AA              
1 67272U 25313AA  26015.18654928  .00006106  00000+0  28286-3 0  9996
2 67272  97.4122  92.3449 0015345 176.6717 183.4623 15.20354460  2688
2025-313AB              
1 67273U 25313AB  26015.18874940  .00002045  00000+0  97915-4 0  9999
2 67273  97.4135  92.3465 0014538 180.7768 179.3447 15.19998450  2685
2025-313AC              
1 67274U 25313AC  26015.18761697  .00003812  00000+0  17881-3 0  9990
2 67274  97.4111  92.3512 0015308 175.7512 184.3856 15.20164317  2689
2025-313AD              
1 67275U 25313AD  26015.18698967  .00004054  00000+0  18968-3 0  9996
2 67275  97.4086  92.3466 0014535 178.5573 181.5707 15.20225309  2681
2025-313AE              
1 67276U 25313AE  26015.18695553  .00004013  00000+0  18782-3 0  9994
2 67276  97.4090  92.3472 0014470 178.6180 181.5098 15.20224341  2685
2025-313AF              
1 67277U 25313AF  26015.18717608  .00003619  00000+0  16984-3 0  9994
2 67277  97.4093  92.3476 0014464 178.4432 181.6851 15.20190291  2688
