CCSDS_OMM_VERS = 2.0
CREATION_DATE  = 
ORIGINATOR     = 

OBJECT_NAME    = SITRO-AIS-65
OBJECT_ID      = 2025-313U
CENTER_NAME    = EARTH
REF_FRAME      = TEME
TIME_SYSTEM    = UTC
MEAN_ELEMENT_THEORY = SGP/SGP4

EPOCH          = 2026-01-15T04:30:25.416288
MEAN_MOTION    = 15.20199968
ECCENTRICITY   = .0015504
INCLINATION    = 97.4142
RA_OF_ASC_NODE = 92.3580
ARG_OF_PERICENTER = 175.3435
MEAN_ANOMALY   = 184.7947

EPHEMERIS_TYPE = 0
CLASSIFICATION_TYPE = U
NORAD_CAT_ID   = 67266
ELEMENT_SET_NO = 999
REV_AT_EPOCH   = 268
BSTAR          = .23489E-3
MEAN_MOTION_DOT = .5035E-4
MEAN_MOTION_DDOT = 0

CCSDS_OMM_VERS = 2.0
CREATION_DATE  = 
ORIGINATOR     = 

OBJECT_NAME    = 2025-313V
OBJECT_ID      = 2025-313V
CENTER_NAME    = EARTH
REF_FRAME      = TEME
TIME_SYSTEM    = UTC
MEAN_ELEMENT_THEORY = SGP/SGP4

EPOCH          = 2026-01-15T04:29:48.386112
MEAN_MOTION    = 15.20258716
ECCENTRICITY   = .0014693
INCLINATION    = 97.4123
RA_OF_ASC_NODE = 92.3459
ARG_OF_PERICENTER = 180.9368
MEAN_ANOMALY   = 179.1842

EPHEMERIS_TYPE = 0
CLASSIFICATION_TYPE = U
NORAD_CAT_ID   = 67267
ELEMENT_SET_NO = 999
REV_AT_EPOCH   = 268
BSTAR          = .26657E-3
MEAN_MOTION_DOT = .5732E-4
MEAN_MOTION_DDOT = 0

CCSDS_OMM_VERS = 2.0
CREATION_DATE  = 
ORIGINATOR     = 

OBJECT_NAME    = ZORKY-2M 7
OBJECT_ID      = 2025-313W
CENTER_NAME    = EARTH
REF_FRAME      = TEME
TIME_SYSTEM    = UTC
MEAN_ELEMENT_THEORY = SGP/SGP4

EPOCH          = 2026-01-15T04:30:46.497024
MEAN_MOTION    = 15.20152629
ECCENTRICITY   = .0015655
INCLINATION    = 97.4123
RA_OF_ASC_NODE = 92.3435
ARG_OF_PERICENTER = 176.1510
MEAN_ANOMALY   = 183.9849

EPHEMERIS_TYPE = 0
CLASSIFICATION_TYPE = U
NORAD_CAT_ID   = 67268
ELEMENT_SET_NO = 999
REV_AT_EPOCH   = 268
BSTAR          = .21693E-3
MEAN_MOTION_DOT = .4639E-4
MEAN_MOTION_DDOT = 0

CCSDS_OMM_VERS = 2.0
CREATION_DATE  = 
ORIGINATOR     = 

OBJECT_NAME    = 2025-313X
OBJECT_ID      = 2025-313X
CENTER_NAME    = EARTH
REF_FRAME      = TEME
TIME_SYSTEM    = UTC
MEAN_ELEMENT_THEORY = SGP/SGP4

EPOCH          = 2026-01-15T02:54:30.186144
MEAN_MOTION    = 15.20334365
ECCENTRICITY   = .001548
INCLINATION    = 97.4150
RA_OF_ASC_NODE = 92.2957
ARG_OF_PERICENTER = 174.8511
MEAN_ANOMALY   = 185.2886

EPHEMERIS_TYPE = 0
CLASSIFICATION_TYPE = U
NORAD_CAT_ID   = 67269
ELEMENT_SET_NO = 999
REV_AT_EPOCH   = 267
BSTAR          = .32822E-3
MEAN_MOTION_DOT = .7093E-4
MEAN_MOTION_DDOT = 0

CCSDS_OMM_VERS = 2.0
CREATION_DATE  = 
ORIGINATOR     = 

OBJECT_NAME    = SITRO-TD-3
OBJECT_ID      = 2025-313Y
CENTER_NAME    = EARTH
REF_FRAME      = TEME
TIME_SYSTEM    = UTC
MEAN_ELEMENT_THEORY = SGP/SGP4

EPOCH          = 2026-01-15T02:56:07.686816
MEAN_MOTION    = 15.20170244
ECCENTRICITY   = .0015593
INCLINATION    = 97.4124
RA_OF_ASC_NODE = 92.2892
ARG_OF_PERICENTER = 176.6712
MEAN_ANOMALY   = 183.4630

EPHEMERIS_TYPE = 0
CLASSIFICATION_TYPE = U
NORAD_CAT_ID   = 67270
ELEMENT_SET_NO = 999
REV_AT_EPOCH   = 267
BSTAR          = .24703E-3
MEAN_MOTION_DOT = .5295E-4
MEAN_MOTION_DDOT = 0

CCSDS_OMM_VERS = 2.0
CREATION_DATE  = 
ORIGINATOR     = 

OBJECT_NAME    = 2025-313Z
OBJECT_ID      = 2025-313Z
CENTER_NAME    = EARTH
REF_FRAME      = TEME
TIME_SYSTEM    = UTC
MEAN_ELEMENT_THEORY = SGP/SGP4

EPOCH          = 2026-01-15T04:31:59.117088
MEAN_MOTION    = 15.20013629
ECCENTRICITY   = .0015635
INCLINATION    = 97.4117
RA_OF_ASC_NODE = 92.3433
ARG_OF_PERICENTER = 172.3110
MEAN_ANOMALY   = 187.8368

EPHEMERIS_TYPE = 0
CLASSIFICATION_TYPE = U
NORAD_CAT_ID   = 67271
ELEMENT_SET_NO = 999
REV_AT_EPOCH   = 268
BSTAR          = .13371E-3
MEAN_MOTION_DOT = .282E-4
MEAN_MOTION_DDOT = 0

CCSDS_OMM_VERS = 2.0
CREATION_DATE  = 
ORIGINATOR     = 

OBJECT_NAME    = 2025-313AA
OBJECT_ID      = 2025-313AA
CENTER_NAME    = EARTH
REF_FRAME      = TEME
TIME_SYSTEM    = UTC
MEAN_ELEMENT_THEORY = SGP/SGP4

EPOCH          = 2026-01-15T04:28:37.857792
MEAN_MOTION    = 15.20354460
ECCENTRICITY   = .0015345
INCLINATION    = 97.4122
RA_OF_ASC_NODE = 92.3449
ARG_OF_PERICENTER = 176.6717
MEAN_ANOMALY   = 183.4623

EPHEMERIS_TYPE = 0
CLASSIFICATION_TYPE = U
NORAD_CAT_ID   = 67272
ELEMENT_SET_NO = 999
REV_AT_EPOCH   = 268
BSTAR          = .28286E-3
MEAN_MOTION_DOT = .6106E-4
MEAN_MOTION_DDOT = 0

CCSDS_OMM_VERS = 2.0
CREATION_DATE  = 
ORIGINATOR     = 

OBJECT_NAME    = 2025-313AB
OBJECT_ID      = 2025-313AB
CENTER_NAME    = EARTH
REF_FRAME      = TEME
TIME_SYSTEM    = UTC
MEAN_ELEMENT_THEORY = SGP/SGP4

EPOCH          = 2026-01-15T04:31:47.948160
MEAN_MOTION    = 15.19998450
ECCENTRICITY   = .0014538
INCLINATION    = 97.4135
RA_OF_ASC_NODE = 92.3465
ARG_OF_PERICENTER = 180.7768
MEAN_ANOMALY   = 179.3447

EPHEMERIS_TYPE = 0
CLASSIFICATION_TYPE = U
NORAD_CAT_ID   = 67273
ELEMENT_SET_NO = 999
REV_AT_EPOCH   = 268
BSTAR          = .97915E-4
MEAN_MOTION_DOT = .2045E-4
MEAN_MOTION_DDOT = 0

CCSDS_OMM_VERS = 2.0
CREATION_DATE  = 
ORIGINATOR     = 

OBJECT_NAME    = 2025-313AC
OBJECT_ID      = 2025-313AC
CENTER_NAME    = EARTH
REF_FRAME      = TEME
TIME_SYSTEM    = UTC
MEAN_ELEMENT_THEORY = SGP/SGP4

EPOCH          = 2026-01-15T04:30:10.106208
MEAN_MOTION    = 15.20164317
ECCENTRICITY   = .0015308
INCLINATION    = 97.4111
RA_OF_ASC_NODE = 92.3512
ARG_OF_PERICENTER = 175.7512
MEAN_ANOMALY   = 184.3856

EPHEMERIS_TYPE = 0
CLASSIFICATION_TYPE = U
NORAD_CAT_ID   = 67274
ELEMENT_SET_NO = 999
REV_AT_EPOCH   = 268
BSTAR          = .17881E-3
MEAN_MOTION_DOT = .3812E-4
MEAN_MOTION_DDOT = 0

CCSDS_OMM_VERS = 2.0
CREATION_DATE  = 
ORIGINATOR     = 

OBJECT_NAME    = 2025-313AD
OBJECT_ID      = 2025-313AD
CENTER_NAME    = EARTH
REF_FRAME      = TEME
TIME_SYSTEM    = UTC
MEAN_ELEMENT_THEORY = SGP/SGP4

EPOCH          = 2026-01-15T04:29:15.907488
MEAN_MOTION    = 15.20225309
ECCENTRICITY   = .0014535
INCLINATION    = 97.4086
RA_OF_ASC_NODE = 92.3466
ARG_OF_PERICENTER = 178.5573
MEAN_ANOMALY   = 181.5707

EPHEMERIS_TYPE = 0
CLASSIFICATION_TYPE = U
NORAD_CAT_ID   = 67275
ELEMENT_SET_NO = 999
REV_AT_EPOCH   = 268
BSTAR          = .18968E-3
MEAN_MOTION_DOT = .4054E-4
MEAN_MOTION_DDOT = 0

CCSDS_OMM_VERS = 2.0
CREATION_DATE  = 
ORIGINATOR     = 

OBJECT_NAME    = 2025-313AE
OBJECT_ID      = 2025-313AE
CENTER_NAME    = EARTH
REF_FRAME      = TEME
TIME_SYSTEM    = UTC
MEAN_ELEMENT_THEORY = SGP/SGP4

EPOCH          = 2026-01-15T04:29:12.957792
MEAN_MOTION    = 15.20224341
ECCENTRICITY   = .001447
INCLINATION    = 97.4090
RA_OF_ASC_NODE = 92.3472
ARG_OF_PERICENTER = 178.6180
MEAN_ANOMALY   = 181.5098

EPHEMERIS_TYPE = 0
CLASSIFICATION_TYPE = U
NORAD_CAT_ID   = 67276
ELEMENT_SET_NO = 999
REV_AT_EPOCH   = 268
BSTAR          = .18782E-3
MEAN_MOTION_DOT = .4013E-4
MEAN_MOTION_DDOT = 0

CCSDS_OMM_VERS = 2.0
CREATION_DATE  = 
ORIGINATOR     = 

OBJECT_NAME    = 2025-313AF
OBJECT_ID      = 2025-313AF
CENTER_NAME    = EARTH
REF_FRAME      = TEME
TIME_SYSTEM    = UTC
MEAN_ELEMENT_THEORY = SGP/SGP4

EPOCH          = 2026-01-15T04:29:32.013312
MEAN_MOTION    = 15.20190291
ECCENTRICITY   = .0014464
INCLINATION    = 97.4093
RA_OF_ASC_NODE = 92.3476
ARG_OF_PERICENTER = 178.4432
MEAN_ANOMALY   = 181.6851

EPHEMERIS_TYPE = 0
CLASSIFICATION_TYPE = U
NORAD_CAT_ID   = 67277
ELEMENT_SET_NO = 999
REV_AT_EPOCH   = 268
BSTAR          = .16984E-3
MEAN_MOTION_DOT = .3619E-4
MEAN_MOTION_DDOT = 0

